OBJECT_NAME,OBJECT_ID,EPOCH,MEAN_MOTION,ECCENTRICITY,INCLINATION,RA_OF_ASC_NODE,ARG_OF_PERICENTER,MEAN_ANOMALY,EPHEMERIS_TYPE,CLASSIFICATION_TYPE,NORAD_CAT_ID,ELEMENT_SET_NO,REV_AT_EPOCH,BSTAR,MEAN_MOTION_DOT,MEAN_MOTION_DDOT
BEIDOU-3S IGSO-1S (C31),2015-019A,2026-06-26T16:41:18.216672,1.00249401,.00390489,49.1760,295.3462,191.6970,128.6573,0,U,40549,999,4116,0,-.17E-5,0
GPS BIIF-10 (PRN 08),2015-033A,2026-06-26T16:39:54.307584,2.00555882,.01151451,53.9750,266.6943,30.2371,330.4696,0,U,40730,999,8018,0,-.31E-6,0
BEIDOU-3S M2S (C58),2015-037A,2026-06-25T21:56:56.733792,1.86232105,.000858,54.8627,301.7450,258.5842,101.3122,0,U,40748,999,7428,0,-.104E-5,0
BEIDOU-3S M1S (C57),2015-037B,2026-06-26T02:54:03.290688,1.86255003,.00032374,54.8590,301.7263,62.2861,297.7397,0,U,40749,999,7429,0,-.103E-5,0
GSAT0206 (GALILEO 10),2015-045B,2026-06-24T11:54:39.024000,1.70473861,.00016854,54.9433,221.4024,336.0482,24.0274,0,U,40890,999,6716,0,.51E-6,0
BEIDOU-3S IGSO-2S (C56),2015-053A,2026-06-26T16:25:46.582752,1.00257789,.00655228,49.2053,258.6677,192.9538,164.2588,0,U,40938,999,3944,0,-.116E-5,0
GPS BIIF-11 (PRN 10),2015-062A,2026-06-26T06:02:09.834144,2.00567152,.011217,56.9655,30.4619,231.0060,128.0428,0,U,41019,999,7801,0,-.83E-6,0
GSAT-15 (GAGAN/PRN 139),2015-065A,2026-06-26T21:33:05.427936,1.00271072,.00046007,0.0489,263.6700,172.9547,255.1844,0,U,41028,999,3889,0,-.246E-5,0
GSAT0209 (GALILEO 12),2015-079A,2026-06-25T06:01:25.527360,1.70473764,.00050472,55.8320,101.0407,349.0522,10.9102,0,U,41174,999,6491,0,-.38E-6,0
GSAT0208 (GALILEO 11),2015-079B,2026-06-26T01:23:22.772544,1.70473681,.00045954,55.8311,101.0154,354.0123,5.9555,0,U,41175,999,6534,0,-.39E-6,0
IRNSS-1E,2016-003A,2026-06-25T14:21:38.812032,1.00274592,.00190622,33.2517,59.6282,179.1130,2.2203,0,U,41241,999,3816,0,-.319E-5,0
GPS BIIF-12 (PRN 32),2016-007A,2026-06-26T08:14:02.457600,2.00551441,.0095637,55.5293,89.0967,247.1706,111.8201,0,U,41328,999,7602,0,-.66E-6,0
COSMOS 2514 (751),2016-008A,2026-06-26T16:05:19.123872,2.13102793,.00116423,65.0155,312.6811,199.0103,160.9356,0,U,41330,999,8082,0,-.84E-6,0
BEIDOU-2 IGSO-6 (C13),2016-021A,2026-06-26T02:38:38.671584,1.00258926,.0057558,60.2385,37.9495,231.0163,137.2672,0,U,41434,999,3757,0,-.145E-5,0
IRNSS-1G,2016-027A,2026-06-26T20:11:51.772416,1.00282495,.00057842,5.2185,97.2514,4.3323,245.6773,0,U,41469,999,3727,0,-.327E-5,0
GSAT0211 (GALILEO 14),2016-030A,2026-06-23T20:02:59.831808,1.70474023,.00030565,55.0937,221.5119,321.3377,38.7209,0,U,41549,999,6278,0,.46E-6,0
GSAT0210 (GALILEO 13),2016-030B,2026-06-25T06:22:49.933344,1.70473937,.0008659,55.0912,221.4705,257.5264,102.4641,0,U,41550,999,6280,0,.56E-6,0
BEIDOU-2 G7 (C03),2016-037A,2026-06-26T21:37:57.460800,1.00272392,.0006832,1.7443,69.4116,1.3174,279.3340,0,U,41586,999,698,0,-.343E-5,0
EUTELSAT 117 WEST B (WAAS/PRN 131),2016-038B,2026-06-26T15:25:08.062752,1.00269678,.00002807,0.0052,198.0230,90.3505,100.6951,0,U,41589,999,3675,0,0,0
GSAT0207 (GALILEO 15),2016-069A,2026-06-26T17:13:02.065728,1.70473700,.00050068,55.5042,100.8225,333.0982,26.8500,0,U,41859,999,5956,0,-.38E-6,0
GSAT0212 (GALILEO 16),2016-069B,2026-06-25T23:37:18.081120,1.70473828,.0004404,55.5014,100.8378,10.9452,349.0377,0,U,41860,999,5980,0,-.39E-6,0
GSAT0213 (GALILEO 17),2016-069C,2026-06-25T04:16:41.547360,1.70474298,.00046296,55.5032,100.8681,315.3374,44.5989,0,U,41861,999,5965,0,-.39E-6,0
GSAT0214 (GALILEO 18),2016-069D,2026-06-21T19:19:10.755840,1.70473560,.00038497,55.5000,100.9540,321.2487,38.7039,0,U,41862,999,5972,0,-.23E-6,0
SES-15 (WAAS/PRN 133),2017-026A,2026-06-26T17:17:04.322688,1.00267078,.00007303,0.0197,336.5648,101.7226,326.6485,0,U,42709,999,752,0,.72E-6,0
QZS-2 (QZSS/PRN 194),2017-028A,2026-06-26T11:46:38.651232,1.00281441,.0759188,39.4133,243.0175,269.3662,80.9134,0,U,42738,999,771,0,-.138E-5,0
QZS-3 (QZSS/PRN 199),2017-048A,2026-06-26T21:42:42.006240,1.00272025,.00022793,0.0678,147.8339,304.0996,275.8116,0,U,42917,999,3235,0,-.336E-5,0
COSMOS 2522 (752),2017-055A,2026-06-24T03:53:00.968064,2.13101107,.00084097,64.0776,191.6387,235.5259,124.4452,0,U,42939,999,6812,0,.104E-5,0
QZS-4 (QZSS/PRN 195),2017-062A,2026-06-26T08:02:03.810048,1.00296962,.0746721,40.1041,343.3683,268.2556,281.2054,0,U,42965,999,3189,0,-.355E-5,0
BEIDOU-3 M1 (C19),2017-069A,2026-06-26T06:16:16.155840,1.86231403,.00099316,56.7000,62.7851,326.5159,33.4640,0,U,43001,999,5877,0,-.86E-6,0
BEIDOU-3 M2 (C20),2017-069B,2026-06-26T04:48:06.055776,1.86230727,.0008922,56.6993,62.8231,352.8542,7.1754,0,U,43002,999,5876,0,-.86E-6,0
GSAT0215 (GALILEO 19),2017-079A,2026-06-26T09:37:16.356864,1.70474651,.00035075,55.0715,221.2530,265.2827,94.7697,0,U,43055,999,5314,0,.63E-6,0
